[{"OBJECT_NAME":"ARIRANG-5 (KOMPSAT-5)","OBJECT_ID":"2013-042A","EPOCH":"2026-03-10T00:02:57.181344","MEAN_MOTION":15.04553599,"ECCENTRICITY":0.00039005,"INCLINATION":97.62,"RA_OF_ASC_NODE":257.0804,"ARG_OF_PERICENTER":111.6826,"MEAN_ANOMALY":248.4816,"EPHEMERIS_TYPE":0,"CLASSIFICATION_TYPE":"U","NORAD_CAT_ID":39227,"ELEMENT_SET_NO":999,"REV_AT_EPOCH":68894,"BSTAR":0.00023956705,"MEAN_MOTION_DOT":3.298e-5,"MEAN_MOTION_DDOT":0},{"OBJECT_NAME":"STARLINK-35154","OBJECT_ID":"2025-207W","EPOCH":"2026-03-09T22:39:40.819680","MEAN_MOTION":15.05648687,"ECCENTRICITY":8.56e-5,"INCLINATION":97.6037,"RA_OF_ASC_NODE":138.9743,"ARG_OF_PERICENTER":106.6462,"MEAN_ANOMALY":253.4859,"EPHEMERIS_TYPE":0,"CLASSIFICATION_TYPE":"U","NORAD_CAT_ID":65612,"ELEMENT_SET_NO":999,"REV_AT_EPOCH":2814,"BSTAR":0.00026506495,"MEAN_MOTION_DOT":3.766e-5,"MEAN_MOTION_DDOT":0}]
